[
    {
        "Altitude(m)": 604983.0528318351,
        "Argument of Periapsis(deg)": 0.0,
        "Eccentricity": 0.0,
        "Inclination(deg)": 60.0,
        "Latitude(deg)": -0.09253315870797273,
        "Longitude(deg)": 100.08391637107859,
        "Mean Anomaly(deg)": 180.0,
        "RAAN(deg)": 20.0,
        "Satellite Name": "Test1 99",
        "Satellite Number": 99,
        "Semi-Major Axis(m)": 6980739.136638005,
        "Time(s)": 0
    },
    {
        "Altitude(m)": 605055.3314910787,
        "Argument of Periapsis(deg)": 0.00010418945913296404,
        "Eccentricity": 0.0,
        "Inclination(deg)": 60.0,
        "Latitude(deg)": -0.6329431218575879,
        "Longitude(deg)": 100.35204110221815,
        "Mean Anomaly(deg)": 180.62010614546185,
        "RAAN(deg)": 19.99957995086026,
        "Satellite Name": "Test1 99",
        "Satellite Number": 99,
        "Semi-Major Axis(m)": 6980739.136638005,
        "Time(s)": 10
    }
]